<?xml version='1.0' encoding='UTF-8'?>
<gpx version="1.1" creator="https://www.komoot.de" xmlns="http://www.topografix.com/GPX/1/1" xmlns:xsi="http://www.w3.org/2001/XMLSchema-instance" xsi:schemaLocation="http://www.topografix.com/GPX/1/1 http://www.topografix.com/GPX/1/1/gpx.xsd">
  <metadata>
    <name>Fronteers: City Walk Dordrecht</name>
    <author>
      <link href="https://www.komoot.de">
        <text>komoot</text>
        <type>text/html</type>
      </link>
    </author>
  </metadata>
  <wpt lat="51.814321" lon="4.670540">
    <name>City Brasserie De Witt</name>
    <sym>Restaurant</sym>
  </wpt>
  <wpt lat="51.815410" lon="4.670403">
    <name>Information board Augustijnenhof / The Court of the Netherlands</name>
    <sym>Flag, Blue</sym>
  </wpt>
  <wpt lat="51.815665" lon="4.669643">
    <name>Fire engine house</name>
    <sym>Flag, Blue</sym>
  </wpt>
  <wpt lat="51.815600" lon="4.668718">
    <name>De Pauw House</name>
    <sym>Flag, Blue</sym>
  </wpt>
  <wpt lat="51.816463" lon="4.666152">
    <name>Statue of Dirk IV of Holland</name>
    <sym>Flag, Blue</sym>
  </wpt>
  <wpt lat="51.816427" lon="4.665232">
    <name>Old Fish Hall</name>
    <sym>Flag, Blue</sym>
  </wpt>
  <wpt lat="51.815270" lon="4.667146">
    <name>Ary Scheffer Statue</name>
    <sym>Flag, Blue</sym>
  </wpt>
  <wpt lat="51.814080" lon="4.666967">
    <name>Oude Mannenhuis Entrance Gate</name>
    <sym>Flag, Blue</sym>
  </wpt>
  <wpt lat="51.813245" lon="4.668530">
    <name>Cat Café Stripe</name>
    <sym>Restaurant</sym>
  </wpt>
  <wpt lat="51.813105" lon="4.668739">
    <name>Arme Vrouwenhof Entrance</name>
    <sym>Flag, Blue</sym>
  </wpt>
  <wpt lat="51.812637" lon="4.669518">
    <name>Monument to Albert Cuyp</name>
    <sym>Flag, Blue</sym>
  </wpt>
  <wpt lat="51.812455" lon="4.669758">
    <name>Leprosy House</name>
    <sym>Flag, Blue</sym>
  </wpt>
  <wpt lat="51.812371" lon="4.669883">
    <name>Dordt City Monastery</name>
    <sym>Flag, Blue</sym>
  </wpt>
  <wpt lat="51.812287" lon="4.668666">
    <name>Street Art The Horse</name>
    <sym>Flag, Blue</sym>
  </wpt>
  <wpt lat="51.812175" lon="4.668515">
    <name>Former Savings Bank</name>
    <sym>Flag, Blue</sym>
  </wpt>
  <wpt lat="51.814356" lon="4.665167">
    <name>Statue of Johan and Cornelis de Witt</name>
    <sym>Flag, Blue</sym>
  </wpt>
  <wpt lat="51.814395" lon="4.665135">
    <name>Monument to the De Witt Brothers</name>
    <sym>Flag, Blue</sym>
  </wpt>
  <wpt lat="51.813898" lon="4.664212">
    <name>Dordrecht Town Hall</name>
    <sym>Flag, Blue</sym>
  </wpt>
  <wpt lat="51.813637" lon="4.664091">
    <name>De Grachtwacht Mural at Voorstraathaven</name>
    <sym>Flag, Blue</sym>
  </wpt>
  <wpt lat="51.813348" lon="4.658746">
    <name>Huis Stratenus</name>
    <sym>Flag, Blue</sym>
  </wpt>
  <wpt lat="51.813398" lon="4.656937">
    <name>Lime Harbour</name>
    <sym>Flag, Blue</sym>
  </wpt>
  <wpt lat="51.813538" lon="4.657190">
    <name>Wall decoration "Fighting Merman"</name>
    <sym>Flag, Blue</sym>
  </wpt>
  <wpt lat="51.813847" lon="4.657549">
    <name>The Korenbeurs</name>
    <sym>Flag, Blue</sym>
  </wpt>
  <wpt lat="51.813792" lon="4.658852">
    <name>Parental home of Lenie Dicke</name>
    <sym>Flag, Blue</sym>
  </wpt>
  <wpt lat="51.813806" lon="4.659202">
    <name>Bridge decoration "Man"</name>
    <sym>Flag, Blue</sym>
  </wpt>
  <wpt lat="51.813849" lon="4.659055">
    <name>Bridge Keeper's House Leuvebrug</name>
    <sym>Flag, Blue</sym>
  </wpt>
  <wpt lat="51.814462" lon="4.659808">
    <name>Facade fitting "Coat of Arms"</name>
    <sym>Flag, Blue</sym>
  </wpt>
  <wpt lat="51.814106" lon="4.660587">
    <name>Church of Our Lady</name>
    <sym>Flag, Blue</sym>
  </wpt>
  <wpt lat="51.815407" lon="4.661377">
    <name>Nieuwe Haven and Grote Kerk Dordrecht</name>
    <sym>Flag, Blue</sym>
  </wpt>
  <wpt lat="51.815866" lon="4.663349">
    <name>Long Iron Bridge</name>
    <sym>Bridge</sym>
  </wpt>
  <wpt lat="51.816516" lon="4.664006">
    <name>Paul House P.L. KOOIMAN</name>
    <sym>Flag, Blue</sym>
  </wpt>
  <wpt lat="51.817290" lon="4.665317">
    <name>Straatman Propeller Dock.</name>
    <sym>Flag, Blue</sym>
  </wpt>
  <wpt lat="51.817773" lon="4.665134">
    <name>Facade decoration Anno 1949</name>
    <sym>Flag, Blue</sym>
  </wpt>
  <wpt lat="51.817207" lon="4.665597">
    <name>Nieuwe Haven, Dordrecht</name>
    <sym>Flag, Blue</sym>
  </wpt>
  <wpt lat="51.818994" lon="4.668247">
    <name>Kuipershaven, Dordrecht</name>
    <sym>Flag, Blue</sym>
  </wpt>
  <wpt lat="51.819799" lon="4.670154">
    <name>Groothoofd Gate</name>
    <sym>Flag, Blue</sym>
  </wpt>
  <wpt lat="51.818015" lon="4.668525">
    <name>St. Boniface Church, Dordrecht</name>
    <sym>Flag, Blue</sym>
  </wpt>
  <wpt lat="51.817038" lon="4.669492">
    <name>Zakkendragersstraat</name>
    <sym>Flag, Blue</sym>
  </wpt>
  <wpt lat="51.817822" lon="4.670520">
    <name>Old Catholic Church Maria Maior.</name>
    <sym>Flag, Blue</sym>
  </wpt>
  <wpt lat="51.819666" lon="4.672571">
    <name>Sailing Ship Relief (1608)</name>
    <sym>Flag, Blue</sym>
  </wpt>
  <wpt lat="51.819491" lon="4.673469">
    <name>Sheep</name>
    <sym>Flag, Blue</sym>
  </wpt>
  <wpt lat="51.819579" lon="4.674108">
    <name>Old Harbour in Dordrecht</name>
    <sym>Flag, Blue</sym>
  </wpt>
  <wpt lat="51.813545" lon="4.670820">
    <name>Arend Maartenshof</name>
    <sym>Flag, Blue</sym>
  </wpt>
  <wpt lat="51.813587" lon="4.670413">
    <name>Kunstkerk Dordrecht</name>
    <sym>Flag, Blue</sym>
  </wpt>
  <wpt lat="51.813714" lon="4.670586">
    <name>Oudewater Cloister Garden</name>
    <sym>Flag, Blue</sym>
  </wpt>
  <trk>
    <name>Fronteers: City Walk Dordrecht</name>
    <type>hike</type>
    <trkseg>
      <trkpt lat="51.814362" lon="4.670473">
        <ele>4.801377</ele>
        <time>2026-09-26T21:37:10.420Z</time>
      </trkpt>
      <trkpt lat="51.814414" lon="4.670557">
        <ele>4.801377</ele>
        <time>2026-09-26T21:37:19.205Z</time>
      </trkpt>
      <trkpt lat="51.814451" lon="4.670617">
        <ele>4.801377</ele>
        <time>2026-09-26T21:37:25.609Z</time>
      </trkpt>
      <trkpt lat="51.814511" lon="4.670714">
        <ele>4.801377</ele>
        <time>2026-09-26T21:37:35.841Z</time>
      </trkpt>
      <trkpt lat="51.814624" lon="4.670895">
        <ele>4.801377</ele>
        <time>2026-09-26T21:37:54.988Z</time>
      </trkpt>
      <trkpt lat="51.814690" lon="4.670796">
        <ele>4.801377</ele>
        <time>2026-09-26T21:38:05.907Z</time>
      </trkpt>
      <trkpt lat="51.814777" lon="4.670727">
        <ele>4.801377</ele>
        <time>2026-09-26T21:38:17.868Z</time>
      </trkpt>
      <trkpt lat="51.815089" lon="4.670485">
        <ele>4.804213</ele>
        <time>2026-09-26T21:39:01.023Z</time>
      </trkpt>
      <trkpt lat="51.815141" lon="4.670565">
        <ele>4.865247</ele>
        <time>2026-09-26T21:39:10.038Z</time>
      </trkpt>
      <trkpt lat="51.815285" lon="4.670206">
        <ele>5.090255</ele>
        <time>2026-09-26T21:39:43.295Z</time>
      </trkpt>
      <trkpt lat="51.815301" lon="4.670165">
        <ele>5.115747</ele>
        <time>2026-09-26T21:39:47.183Z</time>
      </trkpt>
      <trkpt lat="51.815330" lon="4.670202">
        <ele>5.147161</ele>
        <time>2026-09-26T21:39:51.800Z</time>
      </trkpt>
      <trkpt lat="51.815407" lon="4.670289">
        <ele>5.227043</ele>
        <time>2026-09-26T21:40:03.616Z</time>
      </trkpt>
      <trkpt lat="51.815442" lon="4.670330">
        <ele>5.263797</ele>
        <time>2026-09-26T21:40:09.101Z</time>
      </trkpt>
      <trkpt lat="51.815407" lon="4.670289">
        <ele>5.300550</ele>
        <time>2026-09-26T21:40:14.509Z</time>
      </trkpt>
      <trkpt lat="51.815522" lon="4.669977">
        <ele>5.491539</ele>
        <time>2026-09-26T21:40:42.919Z</time>
      </trkpt>
      <trkpt lat="51.815525" lon="4.669971">
        <ele>5.495596</ele>
        <time>2026-09-26T21:40:43.494Z</time>
      </trkpt>
      <trkpt lat="51.815563" lon="4.669877">
        <ele>5.554648</ele>
        <time>2026-09-26T21:40:52.178Z</time>
      </trkpt>
      <trkpt lat="51.815643" lon="4.669625">
        <ele>5.703594</ele>
        <time>2026-09-26T21:41:13.775Z</time>
      </trkpt>
      <trkpt lat="51.815686" lon="4.669492">
        <ele>5.782508</ele>
        <time>2026-09-26T21:41:25.245Z</time>
      </trkpt>
      <trkpt lat="51.815728" lon="4.669395">
        <ele>5.844774</ele>
        <time>2026-09-26T21:41:34.202Z</time>
      </trkpt>
      <trkpt lat="51.815750" lon="4.669318">
        <ele>5.889373</ele>
        <time>2026-09-26T21:41:40.705Z</time>
      </trkpt>
      <trkpt lat="51.815649" lon="4.669235">
        <ele>5.985724</ele>
        <time>2026-09-26T21:41:54.538Z</time>
      </trkpt>
      <trkpt lat="51.815527" lon="4.668801">
        <ele>6.236395</ele>
        <time>2026-09-26T21:42:30.680Z</time>
      </trkpt>
      <trkpt lat="51.815561" lon="4.668762">
        <ele>6.271844</ele>
        <time>2026-09-26T21:42:35.848Z</time>
      </trkpt>
      <trkpt lat="51.815600" lon="4.668718">
        <ele>6.312285</ele>
        <time>2026-09-26T21:42:41.620Z</time>
      </trkpt>
      <trkpt lat="51.815674" lon="4.668634">
        <ele>6.313744</ele>
        <time>2026-09-26T21:42:52.699Z</time>
      </trkpt>
      <trkpt lat="51.815691" lon="4.668581">
        <ele>6.304339</ele>
        <time>2026-09-26T21:42:57.184Z</time>
      </trkpt>
      <trkpt lat="51.815824" lon="4.668200">
        <ele>6.235416</ele>
        <time>2026-09-26T21:43:29.709Z</time>
      </trkpt>
      <trkpt lat="51.815922" lon="4.667928">
        <ele>6.185825</ele>
        <time>2026-09-26T21:43:53.185Z</time>
      </trkpt>
      <trkpt lat="51.816141" lon="4.668034">
        <ele>6.127578</ele>
        <time>2026-09-26T21:44:20.948Z</time>
      </trkpt>
      <trkpt lat="51.816335" lon="4.668031">
        <ele>6.078143</ele>
        <time>2026-09-26T21:44:44.730Z</time>
      </trkpt>
      <trkpt lat="51.816385" lon="4.668030">
        <ele>6.065402</ele>
        <time>2026-09-26T21:44:50.894Z</time>
      </trkpt>
      <trkpt lat="51.816383" lon="4.667190">
        <ele>5.933086</ele>
        <time>2026-09-26T21:45:53.824Z</time>
      </trkpt>
      <trkpt lat="51.816285" lon="4.667076">
        <ele>5.902328</ele>
        <time>2026-09-26T21:46:08.348Z</time>
      </trkpt>
      <trkpt lat="51.816522" lon="4.666400">
        <ele>5.742728</ele>
        <time>2026-09-26T21:47:06.312Z</time>
      </trkpt>
      <trkpt lat="51.816554" lon="4.666308">
        <ele>5.719445</ele>
        <time>2026-09-26T21:47:14.232Z</time>
      </trkpt>
      <trkpt lat="51.816444" lon="4.666206">
        <ele>5.674207</ele>
        <time>2026-09-26T21:47:29.609Z</time>
      </trkpt>
      <trkpt lat="51.816406" lon="4.666171">
        <ele>5.658605</ele>
        <time>2026-09-26T21:47:34.890Z</time>
      </trkpt>
      <trkpt lat="51.816504" lon="4.665942">
        <ele>5.597175</ele>
        <time>2026-09-26T21:47:55.812Z</time>
      </trkpt>
      <trkpt lat="51.816308" lon="4.665699">
        <ele>5.509068</ele>
        <time>2026-09-26T21:48:25.952Z</time>
      </trkpt>
      <trkpt lat="51.816482" lon="4.665386">
        <ele>5.416223</ele>
        <time>2026-09-26T21:48:57.630Z</time>
      </trkpt>
      <trkpt lat="51.816422" lon="4.665298">
        <ele>5.387327</ele>
        <time>2026-09-26T21:49:07.363Z</time>
      </trkpt>
      <trkpt lat="51.816422" lon="4.665298">
        <ele>5.387327</ele>
        <time>2026-09-26T21:49:07.401Z</time>
      </trkpt>
      <trkpt lat="51.816451" lon="4.665194">
        <ele>5.362163</ele>
        <time>2026-09-26T21:49:14.467Z</time>
      </trkpt>
      <trkpt lat="51.816451" lon="4.665194">
        <ele>5.362163</ele>
        <time>2026-09-26T21:49:14.521Z</time>
      </trkpt>
      <trkpt lat="51.816389" lon="4.665250">
        <ele>5.336827</ele>
        <time>2026-09-26T21:49:21.647Z</time>
      </trkpt>
      <trkpt lat="51.816313" lon="4.665138">
        <ele>5.300146</ele>
        <time>2026-09-26T21:49:34.060Z</time>
      </trkpt>
      <trkpt lat="51.815784" lon="4.664217">
        <ele>5.340701</ele>
        <time>2026-09-26T21:51:07.459Z</time>
      </trkpt>
      <trkpt lat="51.815548" lon="4.663773">
        <ele>5.408689</ele>
        <time>2026-09-26T21:51:51.091Z</time>
      </trkpt>
      <trkpt lat="51.815481" lon="4.663646">
        <ele>5.428074</ele>
        <time>2026-09-26T21:52:03.554Z</time>
      </trkpt>
      <trkpt lat="51.815409" lon="4.663716">
        <ele>5.443851</ele>
        <time>2026-09-26T21:52:13.731Z</time>
      </trkpt>
      <trkpt lat="51.815331" lon="4.663753">
        <ele>5.459118</ele>
        <time>2026-09-26T21:52:23.515Z</time>
      </trkpt>
      <trkpt lat="51.815455" lon="4.664171">
        <ele>5.512950</ele>
        <time>2026-09-26T21:52:58.540Z</time>
      </trkpt>
      <trkpt lat="51.815201" lon="4.664396">
        <ele>5.567340</ele>
        <time>2026-09-26T21:53:33.987Z</time>
      </trkpt>
      <trkpt lat="51.815240" lon="4.664507">
        <ele>5.605776</ele>
        <time>2026-09-26T21:53:43.659Z</time>
      </trkpt>
      <trkpt lat="51.815313" lon="4.664715">
        <ele>5.682998</ele>
        <time>2026-09-26T21:54:01.646Z</time>
      </trkpt>
      <trkpt lat="51.815348" lon="4.664815">
        <ele>5.720099</ele>
        <time>2026-09-26T21:54:10.322Z</time>
      </trkpt>
      <trkpt lat="51.815335" lon="4.664853">
        <ele>5.734120</ele>
        <time>2026-09-26T21:54:13.600Z</time>
      </trkpt>
      <trkpt lat="51.815470" lon="4.665218">
        <ele>5.871443</ele>
        <time>2026-09-26T21:54:46.072Z</time>
      </trkpt>
      <trkpt lat="51.815540" lon="4.665409">
        <ele>5.943131</ele>
        <time>2026-09-26T21:55:02.940Z</time>
      </trkpt>
      <trkpt lat="51.815574" lon="4.665514">
        <ele>5.981399</ele>
        <time>2026-09-26T21:55:12.007Z</time>
      </trkpt>
      <trkpt lat="51.815630" lon="4.665686">
        <ele>6.044161</ele>
        <time>2026-09-26T21:55:26.764Z</time>
      </trkpt>
      <trkpt lat="51.815686" lon="4.665702">
        <ele>6.073859</ele>
        <time>2026-09-26T21:55:33.830Z</time>
      </trkpt>
      <trkpt lat="51.815786" lon="4.665959">
        <ele>6.171900</ele>
        <time>2026-09-26T21:55:56.539Z</time>
      </trkpt>
      <trkpt lat="51.815841" lon="4.666095">
        <ele>6.224369</ele>
        <time>2026-09-26T21:56:08.750Z</time>
      </trkpt>
      <trkpt lat="51.815865" lon="4.666151">
        <ele>6.246369</ele>
        <time>2026-09-26T21:56:13.924Z</time>
      </trkpt>
      <trkpt lat="51.815879" lon="4.666240">
        <ele>6.276018</ele>
        <time>2026-09-26T21:56:20.871Z</time>
      </trkpt>
      <trkpt lat="51.815856" lon="4.666449">
        <ele>6.344555</ele>
        <time>2026-09-26T21:56:37.068Z</time>
      </trkpt>
      <trkpt lat="51.815852" lon="4.666517">
        <ele>6.366608</ele>
        <time>2026-09-26T21:56:42.233Z</time>
      </trkpt>
      <trkpt lat="51.815916" lon="4.666686">
        <ele>6.430594</ele>
        <time>2026-09-26T21:56:57.263Z</time>
      </trkpt>
      <trkpt lat="51.815742" lon="4.666885">
        <ele>6.503018</ele>
        <time>2026-09-26T21:57:22.912Z</time>
      </trkpt>
      <trkpt lat="51.815711" lon="4.666918">
        <ele>6.500004</ele>
        <time>2026-09-26T21:57:27.532Z</time>
      </trkpt>
      <trkpt lat="51.815438" lon="4.667183">
        <ele>6.474137</ele>
        <time>2026-09-26T21:58:06.407Z</time>
      </trkpt>
      <trkpt lat="51.815373" lon="4.667244">
        <ele>6.468032</ele>
        <time>2026-09-26T21:58:15.630Z</time>
      </trkpt>
      <trkpt lat="51.815400" lon="4.667304">
        <ele>6.464305</ele>
        <time>2026-09-26T21:58:21.394Z</time>
      </trkpt>
      <trkpt lat="51.815365" lon="4.667344">
        <ele>6.460823</ele>
        <time>2026-09-26T21:58:26.660Z</time>
      </trkpt>
      <trkpt lat="51.815277" lon="4.667138">
        <ele>6.448247</ele>
        <time>2026-09-26T21:58:45.563Z</time>
      </trkpt>
      <trkpt lat="51.815106" lon="4.666743">
        <ele>6.424028</ele>
        <time>2026-09-26T21:59:21.364Z</time>
      </trkpt>
      <trkpt lat="51.814999" lon="4.666850">
        <ele>6.413808</ele>
        <time>2026-09-26T21:59:36.682Z</time>
      </trkpt>
      <trkpt lat="51.814918" lon="4.666931">
        <ele>6.406071</ele>
        <time>2026-09-26T21:59:48.255Z</time>
      </trkpt>
      <trkpt lat="51.814841" lon="4.667012">
        <ele>6.398609</ele>
        <time>2026-09-26T21:59:59.350Z</time>
      </trkpt>
      <trkpt lat="51.814819" lon="4.667039">
        <ele>6.396366</ele>
        <time>2026-09-26T22:00:02.812Z</time>
      </trkpt>
      <trkpt lat="51.814804" lon="4.667057">
        <ele>6.394848</ele>
        <time>2026-09-26T22:00:05.041Z</time>
      </trkpt>
      <trkpt lat="51.814609" lon="4.666588">
        <ele>6.366461</ele>
        <time>2026-09-26T22:00:47.455Z</time>
      </trkpt>
      <trkpt lat="51.814599" lon="4.666558">
        <ele>6.364749</ele>
        <time>2026-09-26T22:00:50.002Z</time>
      </trkpt>
      <trkpt lat="51.814204" lon="4.666968">
        <ele>5.946168</ele>
        <time>2026-09-26T22:01:47.306Z</time>
      </trkpt>
      <trkpt lat="51.814204" lon="4.666968">
        <ele>5.946168</ele>
        <time>2026-09-26T22:01:47.321Z</time>
      </trkpt>
      <trkpt lat="51.814103" lon="4.667025">
        <ele>5.844351</ele>
        <time>2026-09-26T22:01:58.026Z</time>
      </trkpt>
      <trkpt lat="51.814103" lon="4.667025">
        <ele>5.844351</ele>
        <time>2026-09-26T22:01:58.040Z</time>
      </trkpt>
      <trkpt lat="51.813952" lon="4.667183">
        <ele>5.673178</ele>
        <time>2026-09-26T22:02:20.144Z</time>
      </trkpt>
      <trkpt lat="51.813965" lon="4.667216">
        <ele>5.650152</ele>
        <time>2026-09-26T22:02:23.189Z</time>
      </trkpt>
      <trkpt lat="51.813954" lon="4.667230">
        <ele>5.636830</ele>
        <time>2026-09-26T22:02:24.920Z</time>
      </trkpt>
      <trkpt lat="51.813830" lon="4.667394">
        <ele>5.484374</ele>
        <time>2026-09-26T22:02:44.704Z</time>
      </trkpt>
      <trkpt lat="51.813556" lon="4.667873">
        <ele>5.100369</ele>
        <time>2026-09-26T22:03:34.390Z</time>
      </trkpt>
      <trkpt lat="51.813501" lon="4.667983">
        <ele>5.017121</ele>
        <time>2026-09-26T22:03:45.118Z</time>
      </trkpt>
      <trkpt lat="51.813446" lon="4.668092">
        <ele>4.934330</ele>
        <time>2026-09-26T22:03:55.734Z</time>
      </trkpt>
      <trkpt lat="51.813225" lon="4.668502">
        <ele>4.636343</ele>
        <time>2026-09-26T22:04:36.906Z</time>
      </trkpt>
      <trkpt lat="51.813101" lon="4.668733">
        <ele>4.567134</ele>
        <time>2026-09-26T22:05:00.097Z</time>
      </trkpt>
      <trkpt lat="51.813055" lon="4.668818">
        <ele>4.541578</ele>
        <time>2026-09-26T22:05:08.635Z</time>
      </trkpt>
      <trkpt lat="51.812783" lon="4.669316">
        <ele>4.391246</ele>
        <time>2026-09-26T22:05:58.586Z</time>
      </trkpt>
      <trkpt lat="51.812695" lon="4.669484">
        <ele>4.341431</ele>
        <time>2026-09-26T22:06:15.014Z</time>
      </trkpt>
      <trkpt lat="51.812659" lon="4.669550">
        <ele>4.321519</ele>
        <time>2026-09-26T22:06:21.562Z</time>
      </trkpt>
      <trkpt lat="51.812334" lon="4.670139">
        <ele>4.142915</ele>
        <time>2026-09-26T22:07:20.290Z</time>
      </trkpt>
      <trkpt lat="51.812283" lon="4.670221">
        <ele>4.116601</ele>
        <time>2026-09-26T22:07:28.930Z</time>
      </trkpt>
      <trkpt lat="51.812226" lon="4.670155">
        <ele>4.090950</ele>
        <time>2026-09-26T22:07:37.407Z</time>
      </trkpt>
      <trkpt lat="51.812371" lon="4.669883">
        <ele>4.009697</ele>
        <time>2026-09-26T22:08:04.291Z</time>
      </trkpt>
      <trkpt lat="51.812445" lon="4.669744">
        <ele>4.019925</ele>
        <time>2026-09-26T22:08:17.930Z</time>
      </trkpt>
      <trkpt lat="51.812371" lon="4.669883">
        <ele>4.068744</ele>
        <time>2026-09-26T22:08:31.595Z</time>
      </trkpt>
      <trkpt lat="51.812445" lon="4.669744">
        <ele>4.117563</ele>
        <time>2026-09-26T22:08:45.212Z</time>
      </trkpt>
      <trkpt lat="51.812485" lon="4.669668">
        <ele>4.144126</ele>
        <time>2026-09-26T22:08:52.785Z</time>
      </trkpt>
      <trkpt lat="51.812725" lon="4.669236">
        <ele>4.298698</ele>
        <time>2026-09-26T22:09:36.692Z</time>
      </trkpt>
      <trkpt lat="51.812577" lon="4.669038">
        <ele>4.381377</ele>
        <time>2026-09-26T22:10:00.507Z</time>
      </trkpt>
      <trkpt lat="51.812491" lon="4.668925">
        <ele>4.429074</ele>
        <time>2026-09-26T22:10:14.125Z</time>
      </trkpt>
      <trkpt lat="51.812290" lon="4.668660">
        <ele>4.540702</ele>
        <time>2026-09-26T22:10:45.778Z</time>
      </trkpt>
      <trkpt lat="51.812246" lon="4.668602">
        <ele>4.565136</ele>
        <time>2026-09-26T22:10:52.713Z</time>
      </trkpt>
      <trkpt lat="51.812235" lon="4.668508">
        <ele>4.590598</ele>
        <time>2026-09-26T22:10:59.969Z</time>
      </trkpt>
      <trkpt lat="51.812281" lon="4.668418">
        <ele>4.621676</ele>
        <time>2026-09-26T22:11:08.701Z</time>
      </trkpt>
      <trkpt lat="51.812916" lon="4.667271">
        <ele>5.221008</ele>
        <time>2026-09-26T22:13:05.166Z</time>
      </trkpt>
      <trkpt lat="51.812964" lon="4.667172">
        <ele>5.278426</ele>
        <time>2026-09-26T22:13:14.881Z</time>
      </trkpt>
      <trkpt lat="51.813023" lon="4.667054">
        <ele>5.347686</ele>
        <time>2026-09-26T22:13:26.604Z</time>
      </trkpt>
      <trkpt lat="51.813169" lon="4.666769">
        <ele>5.516604</ele>
        <time>2026-09-26T22:13:54.941Z</time>
      </trkpt>
      <trkpt lat="51.813350" lon="4.666412">
        <ele>5.727310</ele>
        <time>2026-09-26T22:14:30.427Z</time>
      </trkpt>
      <trkpt lat="51.813542" lon="4.666071">
        <ele>5.937802</ele>
        <time>2026-09-26T22:15:05.671Z</time>
      </trkpt>
      <trkpt lat="51.813578" lon="4.666014">
        <ele>5.974990</ele>
        <time>2026-09-26T22:15:11.804Z</time>
      </trkpt>
      <trkpt lat="51.813729" lon="4.665814">
        <ele>6.100918</ele>
        <time>2026-09-26T22:15:35.872Z</time>
      </trkpt>
      <trkpt lat="51.814093" lon="4.665451">
        <ele>6.188100</ele>
        <time>2026-09-26T22:16:28.755Z</time>
      </trkpt>
      <trkpt lat="51.814128" lon="4.665415">
        <ele>6.196556</ele>
        <time>2026-09-26T22:16:33.906Z</time>
      </trkpt>
      <trkpt lat="51.814164" lon="4.665377">
        <ele>6.205320</ele>
        <time>2026-09-26T22:16:39.159Z</time>
      </trkpt>
      <trkpt lat="51.814204" lon="4.665335">
        <ele>6.215043</ele>
        <time>2026-09-26T22:16:45.098Z</time>
      </trkpt>
      <trkpt lat="51.814323" lon="4.665201">
        <ele>6.244604</ele>
        <time>2026-09-26T22:17:02.876Z</time>
      </trkpt>
      <trkpt lat="51.814354" lon="4.665164">
        <ele>6.252458</ele>
        <time>2026-09-26T22:17:07.593Z</time>
      </trkpt>
      <trkpt lat="51.814389" lon="4.665123">
        <ele>6.261268</ele>
        <time>2026-09-26T22:17:12.930Z</time>
      </trkpt>
      <trkpt lat="51.814463" lon="4.665036">
        <ele>6.279919</ele>
        <time>2026-09-26T22:17:24.041Z</time>
      </trkpt>
      <trkpt lat="51.814276" lon="4.664643">
        <ele>6.342426</ele>
        <time>2026-09-26T22:18:00.882Z</time>
      </trkpt>
      <trkpt lat="51.813925" lon="4.663920">
        <ele>6.458292</ele>
        <time>2026-09-26T22:19:09.900Z</time>
      </trkpt>
      <trkpt lat="51.813919" lon="4.663894">
        <ele>6.458179</ele>
        <time>2026-09-26T22:19:11.926Z</time>
      </trkpt>
      <trkpt lat="51.813885" lon="4.663921">
        <ele>6.440356</ele>
        <time>2026-09-26T22:19:16.697Z</time>
      </trkpt>
      <trkpt lat="51.813974" lon="4.664129">
        <ele>6.366770</ele>
        <time>2026-09-26T22:19:35.658Z</time>
      </trkpt>
      <trkpt lat="51.813899" lon="4.664213">
        <ele>6.323845</ele>
        <time>2026-09-26T22:19:46.797Z</time>
      </trkpt>
      <trkpt lat="51.813899" lon="4.664213">
        <ele>6.323845</ele>
        <time>2026-09-26T22:19:46.850Z</time>
      </trkpt>
      <trkpt lat="51.813899" lon="4.664213">
        <ele>6.323845</ele>
        <time>2026-09-26T22:19:46.850Z</time>
      </trkpt>
      <trkpt lat="51.813734" lon="4.664024">
        <ele>6.228710</ele>
        <time>2026-09-26T22:20:07.084Z</time>
      </trkpt>
      <trkpt lat="51.813734" lon="4.664024">
        <ele>6.228710</ele>
        <time>2026-09-26T22:20:07.146Z</time>
      </trkpt>
      <trkpt lat="51.813636" lon="4.664087">
        <ele>6.179088</ele>
        <time>2026-09-26T22:20:19.858Z</time>
      </trkpt>
      <trkpt lat="51.813600" lon="4.664110">
        <ele>6.160875</ele>
        <time>2026-09-26T22:20:24.475Z</time>
      </trkpt>
      <trkpt lat="51.813600" lon="4.664110">
        <ele>6.160875</ele>
        <time>2026-09-26T22:20:24.571Z</time>
      </trkpt>
      <trkpt lat="51.813588" lon="4.664066">
        <ele>6.146885</ele>
        <time>2026-09-26T22:20:28.237Z</time>
      </trkpt>
      <trkpt lat="51.813536" lon="4.664093">
        <ele>6.121187</ele>
        <time>2026-09-26T22:20:34.916Z</time>
      </trkpt>
      <trkpt lat="51.813454" lon="4.663723">
        <ele>6.006846</ele>
        <time>2026-09-26T22:21:04.346Z</time>
      </trkpt>
      <trkpt lat="51.813430" lon="4.663524">
        <ele>5.947866</ele>
        <time>2026-09-26T22:21:19.472Z</time>
      </trkpt>
      <trkpt lat="51.813437" lon="4.663422">
        <ele>5.918011</ele>
        <time>2026-09-26T22:21:27.198Z</time>
      </trkpt>
      <trkpt lat="51.813472" lon="4.662862">
        <ele>5.754276</ele>
        <time>2026-09-26T22:22:09.332Z</time>
      </trkpt>
      <trkpt lat="51.813575" lon="4.661690">
        <ele>5.091884</ele>
        <time>2026-09-26T22:23:38.879Z</time>
      </trkpt>
      <trkpt lat="51.813543" lon="4.661644">
        <ele>5.040404</ele>
        <time>2026-09-26T22:23:44.178Z</time>
      </trkpt>
      <trkpt lat="51.813516" lon="4.661602">
        <ele>4.995359</ele>
        <time>2026-09-26T22:23:48.850Z</time>
      </trkpt>
      <trkpt lat="51.813558" lon="4.661062">
        <ele>4.590749</ele>
        <time>2026-09-26T22:24:30.530Z</time>
      </trkpt>
      <trkpt lat="51.813453" lon="4.661037">
        <ele>4.463125</ele>
        <time>2026-09-26T22:24:43.795Z</time>
      </trkpt>
      <trkpt lat="51.813183" lon="4.660978">
        <ele>4.135498</ele>
        <time>2026-09-26T22:25:17.655Z</time>
      </trkpt>
      <trkpt lat="51.813163" lon="4.660917">
        <ele>4.084166</ele>
        <time>2026-09-26T22:25:22.944Z</time>
      </trkpt>
      <trkpt lat="51.813183" lon="4.660652">
        <ele>3.885696</ele>
        <time>2026-09-26T22:25:43.348Z</time>
      </trkpt>
      <trkpt lat="51.812793" lon="4.660582">
        <ele>3.461343</ele>
        <time>2026-09-26T22:26:31.523Z</time>
      </trkpt>
      <trkpt lat="51.812666" lon="4.660558">
        <ele>3.501681</ele>
        <time>2026-09-26T22:26:47.161Z</time>
      </trkpt>
      <trkpt lat="51.812630" lon="4.660552">
        <ele>3.513099</ele>
        <time>2026-09-26T22:26:51.601Z</time>
      </trkpt>
      <trkpt lat="51.812691" lon="4.659943">
        <ele>3.633426</ele>
        <time>2026-09-26T22:27:37.639Z</time>
      </trkpt>
      <trkpt lat="51.812782" lon="4.659632">
        <ele>3.700533</ele>
        <time>2026-09-26T22:28:03.463Z</time>
      </trkpt>
      <trkpt lat="51.812543" lon="4.658355">
        <ele>3.960760</ele>
        <time>2026-09-26T22:29:47.199Z</time>
      </trkpt>
      <trkpt lat="51.812659" lon="4.658384">
        <ele>3.997790</ele>
        <time>2026-09-26T22:30:01.888Z</time>
      </trkpt>
      <trkpt lat="51.813182" lon="4.658532">
        <ele>3.664758</ele>
        <time>2026-09-26T22:31:06.428Z</time>
      </trkpt>
      <trkpt lat="51.813355" lon="4.658658">
        <ele>3.519959</ele>
        <time>2026-09-26T22:31:29.479Z</time>
      </trkpt>
      <trkpt lat="51.813370" lon="4.658669">
        <ele>3.507390</ele>
        <time>2026-09-26T22:31:31.551Z</time>
      </trkpt>
      <trkpt lat="51.813355" lon="4.658658">
        <ele>3.494820</ele>
        <time>2026-09-26T22:31:33.514Z</time>
      </trkpt>
      <trkpt lat="51.813182" lon="4.658532">
        <ele>3.350021</ele>
        <time>2026-09-26T22:31:56.865Z</time>
      </trkpt>
      <trkpt lat="51.813298" lon="4.657960">
        <ele>3.065988</ele>
        <time>2026-09-26T22:32:42.801Z</time>
      </trkpt>
      <trkpt lat="51.813287" lon="4.657860">
        <ele>3.018065</ele>
        <time>2026-09-26T22:32:50.672Z</time>
      </trkpt>
      <trkpt lat="51.813525" lon="4.657288">
        <ele>2.692750</ele>
        <time>2026-09-26T22:33:43.945Z</time>
      </trkpt>
      <trkpt lat="51.813525" lon="4.657288">
        <ele>2.692750</ele>
        <time>2026-09-26T22:33:44.000Z</time>
      </trkpt>
      <trkpt lat="51.813398" lon="4.656937">
        <ele>2.811077</ele>
        <time>2026-09-26T22:34:09.165Z</time>
      </trkpt>
      <trkpt lat="51.813557" lon="4.657211">
        <ele>3.012243</ele>
        <time>2026-09-26T22:34:32.416Z</time>
      </trkpt>
      <trkpt lat="51.813557" lon="4.657211">
        <ele>3.012243</ele>
        <time>2026-09-26T22:34:32.448Z</time>
      </trkpt>
      <trkpt lat="51.813673" lon="4.656932">
        <ele>3.192227</ele>
        <time>2026-09-26T22:34:57.389Z</time>
      </trkpt>
      <trkpt lat="51.813950" lon="4.657227">
        <ele>3.479393</ele>
        <time>2026-09-26T22:35:38.548Z</time>
      </trkpt>
      <trkpt lat="51.813819" lon="4.657516">
        <ele>3.671224</ele>
        <time>2026-09-26T22:36:07.112Z</time>
      </trkpt>
      <trkpt lat="51.813548" lon="4.658118">
        <ele>4.069859</ele>
        <time>2026-09-26T22:37:07.686Z</time>
      </trkpt>
      <trkpt lat="51.813803" lon="4.658551">
        <ele>4.482662</ele>
        <time>2026-09-26T22:37:55.825Z</time>
      </trkpt>
      <trkpt lat="51.813849" lon="4.658682">
        <ele>4.603413</ele>
        <time>2026-09-26T22:38:08.142Z</time>
      </trkpt>
      <trkpt lat="51.813843" lon="4.658784">
        <ele>4.685535</ele>
        <time>2026-09-26T22:38:16.425Z</time>
      </trkpt>
      <trkpt lat="51.813816" lon="4.658871">
        <ele>4.763558</ele>
        <time>2026-09-26T22:38:24.347Z</time>
      </trkpt>
      <trkpt lat="51.813757" lon="4.659061">
        <ele>4.933973</ele>
        <time>2026-09-26T22:38:41.338Z</time>
      </trkpt>
      <trkpt lat="51.813778" lon="4.659118">
        <ele>4.987156</ele>
        <time>2026-09-26T22:38:46.583Z</time>
      </trkpt>
      <trkpt lat="51.813761" lon="4.659133">
        <ele>5.012262</ele>
        <time>2026-09-26T22:38:49.123Z</time>
      </trkpt>
      <trkpt lat="51.813780" lon="4.659173">
        <ele>5.052692</ele>
        <time>2026-09-26T22:38:53.005Z</time>
      </trkpt>
      <trkpt lat="51.813779" lon="4.659198">
        <ele>5.072771</ele>
        <time>2026-09-26T22:38:55.004Z</time>
      </trkpt>
      <trkpt lat="51.813780" lon="4.659173">
        <ele>5.092850</ele>
        <time>2026-09-26T22:38:57.061Z</time>
      </trkpt>
      <trkpt lat="51.813761" lon="4.659133">
        <ele>5.133281</ele>
        <time>2026-09-26T22:39:01.004Z</time>
      </trkpt>
      <trkpt lat="51.813778" lon="4.659118">
        <ele>5.158386</ele>
        <time>2026-09-26T22:39:03.435Z</time>
      </trkpt>
      <trkpt lat="51.813812" lon="4.659152">
        <ele>5.210210</ele>
        <time>2026-09-26T22:39:08.393Z</time>
      </trkpt>
      <trkpt lat="51.813860" lon="4.659200">
        <ele>5.283371</ele>
        <time>2026-09-26T22:39:15.437Z</time>
      </trkpt>
      <trkpt lat="51.813997" lon="4.659244">
        <ele>5.464454</ele>
        <time>2026-09-26T22:39:32.801Z</time>
      </trkpt>
      <trkpt lat="51.814118" lon="4.659282">
        <ele>5.624255</ele>
        <time>2026-09-26T22:39:48.085Z</time>
      </trkpt>
      <trkpt lat="51.814161" lon="4.659305">
        <ele>5.682971</ele>
        <time>2026-09-26T22:39:53.660Z</time>
      </trkpt>
      <trkpt lat="51.814254" lon="4.659394">
        <ele>5.823063</ele>
        <time>2026-09-26T22:40:06.933Z</time>
      </trkpt>
      <trkpt lat="51.814369" lon="4.659594">
        <ele>6.041979</ele>
        <time>2026-09-26T22:40:27.674Z</time>
      </trkpt>
      <trkpt lat="51.814448" lon="4.659800">
        <ele>6.236272</ele>
        <time>2026-09-26T22:40:46.018Z</time>
      </trkpt>
      <trkpt lat="51.814369" lon="4.659594">
        <ele>6.430566</ele>
        <time>2026-09-26T22:41:04.169Z</time>
      </trkpt>
      <trkpt lat="51.814254" lon="4.659394">
        <ele>6.529806</ele>
        <time>2026-09-26T22:41:24.496Z</time>
      </trkpt>
      <trkpt lat="51.814161" lon="4.659305">
        <ele>6.522842</ele>
        <time>2026-09-26T22:41:37.541Z</time>
      </trkpt>
      <trkpt lat="51.814118" lon="4.659282">
        <ele>6.519924</ele>
        <time>2026-09-26T22:41:42.982Z</time>
      </trkpt>
      <trkpt lat="51.814109" lon="4.659354">
        <ele>6.516997</ele>
        <time>2026-09-26T22:41:48.494Z</time>
      </trkpt>
      <trkpt lat="51.814039" lon="4.659528">
        <ele>6.508727</ele>
        <time>2026-09-26T22:42:04.049Z</time>
      </trkpt>
      <trkpt lat="51.813966" lon="4.660414">
        <ele>6.473118</ele>
        <time>2026-09-26T22:43:10.597Z</time>
      </trkpt>
      <trkpt lat="51.813950" lon="4.660535">
        <ele>6.468189</ele>
        <time>2026-09-26T22:43:19.843Z</time>
      </trkpt>
      <trkpt lat="51.813904" lon="4.660894">
        <ele>6.453583</ele>
        <time>2026-09-26T22:43:47.398Z</time>
      </trkpt>
      <trkpt lat="51.813933" lon="4.660911">
        <ele>6.451595</ele>
        <time>2026-09-26T22:43:51.244Z</time>
      </trkpt>
      <trkpt lat="51.813905" lon="4.661157">
        <ele>6.441630</ele>
        <time>2026-09-26T22:44:10.203Z</time>
      </trkpt>
      <trkpt lat="51.813938" lon="4.661179">
        <ele>6.439330</ele>
        <time>2026-09-26T22:44:14.510Z</time>
      </trkpt>
      <trkpt lat="51.813938" lon="4.661246">
        <ele>6.436661</ele>
        <time>2026-09-26T22:44:19.546Z</time>
      </trkpt>
      <trkpt lat="51.813963" lon="4.661291">
        <ele>6.434251</ele>
        <time>2026-09-26T22:44:24.044Z</time>
      </trkpt>
      <trkpt lat="51.813998" lon="4.661280">
        <ele>6.431953</ele>
        <time>2026-09-26T22:44:28.267Z</time>
      </trkpt>
      <trkpt lat="51.814026" lon="4.661323">
        <ele>6.429465</ele>
        <time>2026-09-26T22:44:32.950Z</time>
      </trkpt>
      <trkpt lat="51.814037" lon="4.661465">
        <ele>6.423764</ele>
        <time>2026-09-26T22:44:43.707Z</time>
      </trkpt>
      <trkpt lat="51.814064" lon="4.661460">
        <ele>6.422013</ele>
        <time>2026-09-26T22:44:46.946Z</time>
      </trkpt>
      <trkpt lat="51.814098" lon="4.661473">
        <ele>6.419761</ele>
        <time>2026-09-26T22:44:51.231Z</time>
      </trkpt>
      <trkpt lat="51.814264" lon="4.661535">
        <ele>6.158228</ele>
        <time>2026-09-26T22:45:12.048Z</time>
      </trkpt>
      <trkpt lat="51.814417" lon="4.661538">
        <ele>5.919279</ele>
        <time>2026-09-26T22:45:30.777Z</time>
      </trkpt>
      <trkpt lat="51.814453" lon="4.661476">
        <ele>5.837160</ele>
        <time>2026-09-26T22:45:37.382Z</time>
      </trkpt>
      <trkpt lat="51.814621" lon="4.660868">
        <ele>5.194218</ele>
        <time>2026-09-26T22:46:28.725Z</time>
      </trkpt>
      <trkpt lat="51.814666" lon="4.660702">
        <ele>5.019227</ele>
        <time>2026-09-26T22:46:42.791Z</time>
      </trkpt>
      <trkpt lat="51.814715" lon="4.660524">
        <ele>4.831114</ele>
        <time>2026-09-26T22:46:57.734Z</time>
      </trkpt>
      <trkpt lat="51.814777" lon="4.660646">
        <ele>4.678645</ele>
        <time>2026-09-26T22:47:09.798Z</time>
      </trkpt>
      <trkpt lat="51.815001" lon="4.660898">
        <ele>4.252553</ele>
        <time>2026-09-26T22:47:43.643Z</time>
      </trkpt>
      <trkpt lat="51.815204" lon="4.661082">
        <ele>3.889162</ele>
        <time>2026-09-26T22:48:12.969Z</time>
      </trkpt>
      <trkpt lat="51.815384" lon="4.661249">
        <ele>3.579302</ele>
        <time>2026-09-26T22:48:39.007Z</time>
      </trkpt>
      <trkpt lat="51.815436" lon="4.661298">
        <ele>3.514565</ele>
        <time>2026-09-26T22:48:46.607Z</time>
      </trkpt>
      <trkpt lat="51.815522" lon="4.661380">
        <ele>3.407177</ele>
        <time>2026-09-26T22:48:59.211Z</time>
      </trkpt>
      <trkpt lat="51.815478" lon="4.661579">
        <ele>3.266630</ele>
        <time>2026-09-26T22:49:15.677Z</time>
      </trkpt>
      <trkpt lat="51.815509" lon="4.661756">
        <ele>3.144290</ele>
        <time>2026-09-26T22:49:29.947Z</time>
      </trkpt>
      <trkpt lat="51.816037" lon="4.663107">
        <ele>2.081382</ele>
        <time>2026-09-26T22:51:31.041Z</time>
      </trkpt>
      <trkpt lat="51.816062" lon="4.663165">
        <ele>2.034362</ele>
        <time>2026-09-26T22:51:36.381Z</time>
      </trkpt>
      <trkpt lat="51.816002" lon="4.663204">
        <ele>1.964802</ele>
        <time>2026-09-26T22:51:44.211Z</time>
      </trkpt>
      <trkpt lat="51.815858" lon="4.663325">
        <ele>1.790245</ele>
        <time>2026-09-26T22:52:03.799Z</time>
      </trkpt>
      <trkpt lat="51.816002" lon="4.663204">
        <ele>1.729532</ele>
        <time>2026-09-26T22:52:23.340Z</time>
      </trkpt>
      <trkpt lat="51.816062" lon="4.663165">
        <ele>1.791569</ele>
        <time>2026-09-26T22:52:31.196Z</time>
      </trkpt>
      <trkpt lat="51.816089" lon="4.663227">
        <ele>1.836548</ele>
        <time>2026-09-26T22:52:36.861Z</time>
      </trkpt>
      <trkpt lat="51.816245" lon="4.663606">
        <ele>2.106595</ele>
        <time>2026-09-26T22:53:11.087Z</time>
      </trkpt>
      <trkpt lat="51.816483" lon="4.664052">
        <ele>2.456029</ele>
        <time>2026-09-26T22:53:55.913Z</time>
      </trkpt>
      <trkpt lat="51.816612" lon="4.664293">
        <ele>2.645097</ele>
        <time>2026-09-26T22:54:20.506Z</time>
      </trkpt>
      <trkpt lat="51.817011" lon="4.665043">
        <ele>3.231941</ele>
        <time>2026-09-26T22:55:38.547Z</time>
      </trkpt>
      <trkpt lat="51.817230" lon="4.665382">
        <ele>3.517002</ele>
        <time>2026-09-26T22:56:17.275Z</time>
      </trkpt>
      <trkpt lat="51.817290" lon="4.665349">
        <ele>3.574924</ele>
        <time>2026-09-26T22:56:25.539Z</time>
      </trkpt>
      <trkpt lat="51.817300" lon="4.665334">
        <ele>3.587388</ele>
        <time>2026-09-26T22:56:27.263Z</time>
      </trkpt>
      <trkpt lat="51.817524" lon="4.664986">
        <ele>3.871240</ele>
        <time>2026-09-26T22:57:06.684Z</time>
      </trkpt>
      <trkpt lat="51.817732" lon="4.664676">
        <ele>4.129728</ele>
        <time>2026-09-26T22:57:41.397Z</time>
      </trkpt>
      <trkpt lat="51.817887" lon="4.664985">
        <ele>4.354555</ele>
        <time>2026-09-26T22:58:11.580Z</time>
      </trkpt>
      <trkpt lat="51.817732" lon="4.664676">
        <ele>4.579382</ele>
        <time>2026-09-26T22:58:41.914Z</time>
      </trkpt>
      <trkpt lat="51.817524" lon="4.664986">
        <ele>4.837871</ele>
        <time>2026-09-26T22:59:16.587Z</time>
      </trkpt>
      <trkpt lat="51.817300" lon="4.665334">
        <ele>5.072860</ele>
        <time>2026-09-26T22:59:54.140Z</time>
      </trkpt>
      <trkpt lat="51.817290" lon="4.665349">
        <ele>5.077348</ele>
        <time>2026-09-26T22:59:55.748Z</time>
      </trkpt>
      <trkpt lat="51.817230" lon="4.665382">
        <ele>5.098200</ele>
        <time>2026-09-26T23:00:03.503Z</time>
      </trkpt>
      <trkpt lat="51.817227" lon="4.665409">
        <ele>5.103779</ele>
        <time>2026-09-26T23:00:05.524Z</time>
      </trkpt>
      <trkpt lat="51.817213" lon="4.665549">
        <ele>5.132626</ele>
        <time>2026-09-26T23:00:16.117Z</time>
      </trkpt>
      <trkpt lat="51.817205" lon="4.665627">
        <ele>5.148708</ele>
        <time>2026-09-26T23:00:22.013Z</time>
      </trkpt>
      <trkpt lat="51.817251" lon="4.665650">
        <ele>5.164550</ele>
        <time>2026-09-26T23:00:27.935Z</time>
      </trkpt>
      <trkpt lat="51.818194" lon="4.666962">
        <ele>5.573804</ele>
        <time>2026-09-26T23:02:59.769Z</time>
      </trkpt>
      <trkpt lat="51.818620" lon="4.667571">
        <ele>5.339116</ele>
        <time>2026-09-26T23:04:08.612Z</time>
      </trkpt>
      <trkpt lat="51.818982" lon="4.668264">
        <ele>4.894319</ele>
        <time>2026-09-26T23:05:16.788Z</time>
      </trkpt>
      <trkpt lat="51.819026" lon="4.668350">
        <ele>4.839591</ele>
        <time>2026-09-26T23:05:25.340Z</time>
      </trkpt>
      <trkpt lat="51.819343" lon="4.669131">
        <ele>4.381554</ele>
        <time>2026-09-26T23:06:36.985Z</time>
      </trkpt>
      <trkpt lat="51.819668" lon="4.669354">
        <ele>4.110053</ele>
        <time>2026-09-26T23:07:20.310Z</time>
      </trkpt>
      <trkpt lat="51.819767" lon="4.669931">
        <ele>3.839287</ele>
        <time>2026-09-26T23:08:06.352Z</time>
      </trkpt>
      <trkpt lat="51.819753" lon="4.670205">
        <ele>3.714970</ele>
        <time>2026-09-26T23:08:27.588Z</time>
      </trkpt>
      <trkpt lat="51.819788" lon="4.670194">
        <ele>3.688889</ele>
        <time>2026-09-26T23:08:32.092Z</time>
      </trkpt>
      <trkpt lat="51.819753" lon="4.670205">
        <ele>3.662808</ele>
        <time>2026-09-26T23:08:36.496Z</time>
      </trkpt>
      <trkpt lat="51.819745" lon="4.670359">
        <ele>3.592929</ele>
        <time>2026-09-26T23:08:48.432Z</time>
      </trkpt>
      <trkpt lat="51.819620" lon="4.670301">
        <ele>3.497804</ele>
        <time>2026-09-26T23:09:04.578Z</time>
      </trkpt>
      <trkpt lat="51.819555" lon="4.670267">
        <ele>3.447833</ele>
        <time>2026-09-26T23:09:12.961Z</time>
      </trkpt>
      <trkpt lat="51.819524" lon="4.670252">
        <ele>3.424164</ele>
        <time>2026-09-26T23:09:16.979Z</time>
      </trkpt>
      <trkpt lat="51.819415" lon="4.670380">
        <ele>3.325638</ele>
        <time>2026-09-26T23:09:33.540Z</time>
      </trkpt>
      <trkpt lat="51.819338" lon="4.670254">
        <ele>3.245522</ele>
        <time>2026-09-26T23:09:46.991Z</time>
      </trkpt>
      <trkpt lat="51.819249" lon="4.670444">
        <ele>3.137728</ele>
        <time>2026-09-26T23:10:04.645Z</time>
      </trkpt>
      <trkpt lat="51.818623" lon="4.669769">
        <ele>3.519956</ele>
        <time>2026-09-26T23:11:39.662Z</time>
      </trkpt>
      <trkpt lat="51.818513" lon="4.669650">
        <ele>3.716612</ele>
        <time>2026-09-26T23:11:56.334Z</time>
      </trkpt>
      <trkpt lat="51.818476" lon="4.669608">
        <ele>3.783784</ele>
        <time>2026-09-26T23:12:02.048Z</time>
      </trkpt>
      <trkpt lat="51.818694" lon="4.669094">
        <ele>4.356420</ele>
        <time>2026-09-26T23:12:51.716Z</time>
      </trkpt>
      <trkpt lat="51.818282" lon="4.668707">
        <ele>5.064425</ele>
        <time>2026-09-26T23:13:53.862Z</time>
      </trkpt>
      <trkpt lat="51.818013" lon="4.668532">
        <ele>5.495302</ele>
        <time>2026-09-26T23:14:30.517Z</time>
      </trkpt>
      <trkpt lat="51.817812" lon="4.668401">
        <ele>5.572939</ele>
        <time>2026-09-26T23:14:56.622Z</time>
      </trkpt>
      <trkpt lat="51.817586" lon="4.668277">
        <ele>5.579975</ele>
        <time>2026-09-26T23:15:25.246Z</time>
      </trkpt>
      <trkpt lat="51.817192" lon="4.668113">
        <ele>5.591970</ele>
        <time>2026-09-26T23:16:14.369Z</time>
      </trkpt>
      <trkpt lat="51.817126" lon="4.668575">
        <ele>5.600613</ele>
        <time>2026-09-26T23:16:49.826Z</time>
      </trkpt>
      <trkpt lat="51.817061" lon="4.669130">
        <ele>5.610908</ele>
        <time>2026-09-26T23:17:32.024Z</time>
      </trkpt>
      <trkpt lat="51.816993" lon="4.669451">
        <ele>5.617093</ele>
        <time>2026-09-26T23:17:57.501Z</time>
      </trkpt>
      <trkpt lat="51.817005" lon="4.669460">
        <ele>5.617483</ele>
        <time>2026-09-26T23:17:59.104Z</time>
      </trkpt>
      <trkpt lat="51.817040" lon="4.669486">
        <ele>5.618618</ele>
        <time>2026-09-26T23:18:03.750Z</time>
      </trkpt>
      <trkpt lat="51.817214" lon="4.669618">
        <ele>5.630657</ele>
        <time>2026-09-26T23:18:27.079Z</time>
      </trkpt>
      <trkpt lat="51.817242" lon="4.669646">
        <ele>5.633524</ele>
        <time>2026-09-26T23:18:31.101Z</time>
      </trkpt>
      <trkpt lat="51.817611" lon="4.670078">
        <ele>5.673193</ele>
        <time>2026-09-26T23:19:26.907Z</time>
      </trkpt>
      <trkpt lat="51.817711" lon="4.670245">
        <ele>5.685710</ele>
        <time>2026-09-26T23:19:44.466Z</time>
      </trkpt>
      <trkpt lat="51.817855" lon="4.670470">
        <ele>5.703146</ele>
        <time>2026-09-26T23:20:08.620Z</time>
      </trkpt>
      <trkpt lat="51.817825" lon="4.670532">
        <ele>5.707385</ele>
        <time>2026-09-26T23:20:14.445Z</time>
      </trkpt>
      <trkpt lat="51.817855" lon="4.670470">
        <ele>5.711623</ele>
        <time>2026-09-26T23:20:20.298Z</time>
      </trkpt>
      <trkpt lat="51.818029" lon="4.670712">
        <ele>5.731608</ele>
        <time>2026-09-26T23:20:47.872Z</time>
      </trkpt>
      <trkpt lat="51.818043" lon="4.670730">
        <ele>5.733165</ele>
        <time>2026-09-26T23:20:50.027Z</time>
      </trkpt>
      <trkpt lat="51.818556" lon="4.671386">
        <ele>5.751113</ele>
        <time>2026-09-26T23:22:09.059Z</time>
      </trkpt>
      <trkpt lat="51.818668" lon="4.671569">
        <ele>5.721539</ele>
        <time>2026-09-26T23:22:28.178Z</time>
      </trkpt>
      <trkpt lat="51.819007" lon="4.672091">
        <ele>5.634590</ele>
        <time>2026-09-26T23:23:24.650Z</time>
      </trkpt>
      <trkpt lat="51.819192" lon="4.672271">
        <ele>5.594483</ele>
        <time>2026-09-26T23:23:50.535Z</time>
      </trkpt>
      <trkpt lat="51.819349" lon="4.672506">
        <ele>5.554745</ele>
        <time>2026-09-26T23:24:16.421Z</time>
      </trkpt>
      <trkpt lat="51.819372" lon="4.672610">
        <ele>5.542060</ele>
        <time>2026-09-26T23:24:24.647Z</time>
      </trkpt>
      <trkpt lat="51.819410" lon="4.672594">
        <ele>5.534765</ele>
        <time>2026-09-26T23:24:29.443Z</time>
      </trkpt>
      <trkpt lat="51.819550" lon="4.672536">
        <ele>5.507916</ele>
        <time>2026-09-26T23:24:46.749Z</time>
      </trkpt>
      <trkpt lat="51.819688" lon="4.672556">
        <ele>5.482176</ele>
        <time>2026-09-26T23:25:03.455Z</time>
      </trkpt>
      <trkpt lat="51.819556" lon="4.673493">
        <ele>5.046887</ele>
        <time>2026-09-26T23:26:16.302Z</time>
      </trkpt>
      <trkpt lat="51.819516" lon="4.673772">
        <ele>4.864941</ele>
        <time>2026-09-26T23:26:38.073Z</time>
      </trkpt>
      <trkpt lat="51.819487" lon="4.674016">
        <ele>4.707096</ele>
        <time>2026-09-26T23:26:57.103Z</time>
      </trkpt>
      <trkpt lat="51.819575" lon="4.674062">
        <ele>4.612053</ele>
        <time>2026-09-26T23:27:08.567Z</time>
      </trkpt>
      <trkpt lat="51.819487" lon="4.674016">
        <ele>4.517010</ele>
        <time>2026-09-26T23:27:19.919Z</time>
      </trkpt>
      <trkpt lat="51.819438" lon="4.674482">
        <ele>4.216720</ele>
        <time>2026-09-26T23:27:55.907Z</time>
      </trkpt>
      <trkpt lat="51.819394" lon="4.674737">
        <ele>4.048533</ele>
        <time>2026-09-26T23:28:15.976Z</time>
      </trkpt>
      <trkpt lat="51.819330" lon="4.674953">
        <ele>3.896364</ele>
        <time>2026-09-26T23:28:34.135Z</time>
      </trkpt>
      <trkpt lat="51.819234" lon="4.675127">
        <ele>3.748200</ele>
        <time>2026-09-26T23:28:51.863Z</time>
      </trkpt>
      <trkpt lat="51.819083" lon="4.675296">
        <ele>3.583690</ele>
        <time>2026-09-26T23:29:14.308Z</time>
      </trkpt>
      <trkpt lat="51.818865" lon="4.675402">
        <ele>3.509075</ele>
        <time>2026-09-26T23:29:42.260Z</time>
      </trkpt>
      <trkpt lat="51.818835" lon="4.675426">
        <ele>3.498105</ele>
        <time>2026-09-26T23:29:46.390Z</time>
      </trkpt>
      <trkpt lat="51.818748" lon="4.675452">
        <ele>3.469105</ele>
        <time>2026-09-26T23:29:57.232Z</time>
      </trkpt>
      <trkpt lat="51.818618" lon="4.675413">
        <ele>3.425767</ele>
        <time>2026-09-26T23:30:13.331Z</time>
      </trkpt>
      <trkpt lat="51.818542" lon="4.675298">
        <ele>3.391656</ele>
        <time>2026-09-26T23:30:26.137Z</time>
      </trkpt>
      <trkpt lat="51.818500" lon="4.675339">
        <ele>3.375577</ele>
        <time>2026-09-26T23:30:32.149Z</time>
      </trkpt>
      <trkpt lat="51.818331" lon="4.675080">
        <ele>3.299270</ele>
        <time>2026-09-26T23:31:00.443Z</time>
      </trkpt>
      <trkpt lat="51.818017" lon="4.674768">
        <ele>3.178481</ele>
        <time>2026-09-26T23:31:44.771Z</time>
      </trkpt>
      <trkpt lat="51.817662" lon="4.674417">
        <ele>3.042104</ele>
        <time>2026-09-26T23:32:35.772Z</time>
      </trkpt>
      <trkpt lat="51.817540" lon="4.674346">
        <ele>3.016585</ele>
        <time>2026-09-26T23:32:51.385Z</time>
      </trkpt>
      <trkpt lat="51.817453" lon="4.674328">
        <ele>3.071316</ele>
        <time>2026-09-26T23:33:02.112Z</time>
      </trkpt>
      <trkpt lat="51.817244" lon="4.674393">
        <ele>3.204124</ele>
        <time>2026-09-26T23:33:27.874Z</time>
      </trkpt>
      <trkpt lat="51.817252" lon="4.674448">
        <ele>3.225920</ele>
        <time>2026-09-26T23:33:32.087Z</time>
      </trkpt>
      <trkpt lat="51.816745" lon="4.674690">
        <ele>3.555780</ele>
        <time>2026-09-26T23:34:36.555Z</time>
      </trkpt>
      <trkpt lat="51.816730" lon="4.674659">
        <ele>3.570966</ele>
        <time>2026-09-26T23:34:39.540Z</time>
      </trkpt>
      <trkpt lat="51.816704" lon="4.674657">
        <ele>3.587209</ele>
        <time>2026-09-26T23:34:42.741Z</time>
      </trkpt>
      <trkpt lat="51.816583" lon="4.674593">
        <ele>3.666649</ele>
        <time>2026-09-26T23:34:58.701Z</time>
      </trkpt>
      <trkpt lat="51.816628" lon="4.674440">
        <ele>3.732009</ele>
        <time>2026-09-26T23:35:11.781Z</time>
      </trkpt>
      <trkpt lat="51.816660" lon="4.674215">
        <ele>3.821071</ele>
        <time>2026-09-26T23:35:29.593Z</time>
      </trkpt>
      <trkpt lat="51.816766" lon="4.673930">
        <ele>3.949375</ele>
        <time>2026-09-26T23:35:55.064Z</time>
      </trkpt>
      <trkpt lat="51.816798" lon="4.673840">
        <ele>3.989426</ele>
        <time>2026-09-26T23:36:02.936Z</time>
      </trkpt>
      <trkpt lat="51.816820" lon="4.673774">
        <ele>4.018351</ele>
        <time>2026-09-26T23:36:08.686Z</time>
      </trkpt>
      <trkpt lat="51.816816" lon="4.673677">
        <ele>4.055852</ele>
        <time>2026-09-26T23:36:16.045Z</time>
      </trkpt>
      <trkpt lat="51.816807" lon="4.673669">
        <ele>4.062260</ele>
        <time>2026-09-26T23:36:17.276Z</time>
      </trkpt>
      <trkpt lat="51.816594" lon="4.673460">
        <ele>4.197970</ele>
        <time>2026-09-26T23:36:47.846Z</time>
      </trkpt>
      <trkpt lat="51.816348" lon="4.673221">
        <ele>4.337697</ele>
        <time>2026-09-26T23:37:22.949Z</time>
      </trkpt>
      <trkpt lat="51.816312" lon="4.673185">
        <ele>4.358306</ele>
        <time>2026-09-26T23:37:28.253Z</time>
      </trkpt>
      <trkpt lat="51.816004" lon="4.672883">
        <ele>4.533679</ele>
        <time>2026-09-26T23:38:12.381Z</time>
      </trkpt>
      <trkpt lat="51.815889" lon="4.672795">
        <ele>4.595625</ele>
        <time>2026-09-26T23:38:27.805Z</time>
      </trkpt>
      <trkpt lat="51.815633" lon="4.672614">
        <ele>4.731665</ele>
        <time>2026-09-26T23:39:01.985Z</time>
      </trkpt>
      <trkpt lat="51.815295" lon="4.672408">
        <ele>4.907541</ele>
        <time>2026-09-26T23:39:46.338Z</time>
      </trkpt>
      <trkpt lat="51.815230" lon="4.672396">
        <ele>4.939397</ele>
        <time>2026-09-26T23:39:54.285Z</time>
      </trkpt>
      <trkpt lat="51.815045" lon="4.672254">
        <ele>4.976551</ele>
        <time>2026-09-26T23:40:19.117Z</time>
      </trkpt>
      <trkpt lat="51.814830" lon="4.672002">
        <ele>4.877789</ele>
        <time>2026-09-26T23:40:51.081Z</time>
      </trkpt>
      <trkpt lat="51.814703" lon="4.671853">
        <ele>4.819432</ele>
        <time>2026-09-26T23:41:09.960Z</time>
      </trkpt>
      <trkpt lat="51.814679" lon="4.671938">
        <ele>4.797944</ele>
        <time>2026-09-26T23:41:16.904Z</time>
      </trkpt>
      <trkpt lat="51.814636" lon="4.672066">
        <ele>4.764444</ele>
        <time>2026-09-26T23:41:27.845Z</time>
      </trkpt>
      <trkpt lat="51.814628" lon="4.672094">
        <ele>4.757351</ele>
        <time>2026-09-26T23:41:30.170Z</time>
      </trkpt>
      <trkpt lat="51.814471" lon="4.672586">
        <ele>4.630030</ele>
        <time>2026-09-26T23:42:11.795Z</time>
      </trkpt>
      <trkpt lat="51.814443" lon="4.672669">
        <ele>4.608287</ele>
        <time>2026-09-26T23:42:18.928Z</time>
      </trkpt>
      <trkpt lat="51.814338" lon="4.672571">
        <ele>4.563195</ele>
        <time>2026-09-26T23:42:33.667Z</time>
      </trkpt>
      <trkpt lat="51.813805" lon="4.671995">
        <ele>4.337812</ele>
        <time>2026-09-26T23:43:52.074Z</time>
      </trkpt>
      <trkpt lat="51.813505" lon="4.671658">
        <ele>4.382159</ele>
        <time>2026-09-26T23:44:36.264Z</time>
      </trkpt>
      <trkpt lat="51.812958" lon="4.671031">
        <ele>4.463559</ele>
        <time>2026-09-26T23:45:57.671Z</time>
      </trkpt>
      <trkpt lat="51.813200" lon="4.670588">
        <ele>4.507933</ele>
        <time>2026-09-26T23:46:42.291Z</time>
      </trkpt>
      <trkpt lat="51.813238" lon="4.670512">
        <ele>4.515270</ele>
        <time>2026-09-26T23:46:49.687Z</time>
      </trkpt>
      <trkpt lat="51.813425" lon="4.670182">
        <ele>4.548872</ele>
        <time>2026-09-26T23:47:23.718Z</time>
      </trkpt>
      <trkpt lat="51.813586" lon="4.670416">
        <ele>4.552984</ele>
        <time>2026-09-26T23:47:49.959Z</time>
      </trkpt>
      <trkpt lat="51.813677" lon="4.670549">
        <ele>4.552984</ele>
        <time>2026-09-26T23:48:04.955Z</time>
      </trkpt>
      <trkpt lat="51.813638" lon="4.670622">
        <ele>4.552984</ele>
        <time>2026-09-26T23:48:12.225Z</time>
      </trkpt>
      <trkpt lat="51.813611" lon="4.670671">
        <ele>4.552984</ele>
        <time>2026-09-26T23:48:17.126Z</time>
      </trkpt>
      <trkpt lat="51.813604" lon="4.670685">
        <ele>4.552984</ele>
        <time>2026-09-26T23:48:18.527Z</time>
      </trkpt>
      <trkpt lat="51.813543" lon="4.670800">
        <ele>4.552984</ele>
        <time>2026-09-26T23:48:29.829Z</time>
      </trkpt>
      <trkpt lat="51.813604" lon="4.670685">
        <ele>4.552984</ele>
        <time>2026-09-26T23:48:41.192Z</time>
      </trkpt>
      <trkpt lat="51.813611" lon="4.670671">
        <ele>4.552984</ele>
        <time>2026-09-26T23:48:42.571Z</time>
      </trkpt>
      <trkpt lat="51.813638" lon="4.670622">
        <ele>4.552984</ele>
        <time>2026-09-26T23:48:47.400Z</time>
      </trkpt>
      <trkpt lat="51.813677" lon="4.670549">
        <ele>4.552984</ele>
        <time>2026-09-26T23:48:54.679Z</time>
      </trkpt>
      <trkpt lat="51.813586" lon="4.670416">
        <ele>4.552984</ele>
        <time>2026-09-26T23:49:09.544Z</time>
      </trkpt>
      <trkpt lat="51.813677" lon="4.670549">
        <ele>4.552984</ele>
        <time>2026-09-26T23:49:24.443Z</time>
      </trkpt>
      <trkpt lat="51.813710" lon="4.670593">
        <ele>4.552984</ele>
        <time>2026-09-26T23:49:29.606Z</time>
      </trkpt>
      <trkpt lat="51.813927" lon="4.670890">
        <ele>4.552984</ele>
        <time>2026-09-26T23:50:04.091Z</time>
      </trkpt>
      <trkpt lat="51.814197" lon="4.670487">
        <ele>4.552984</ele>
        <time>2026-09-26T23:50:48.491Z</time>
      </trkpt>
      <trkpt lat="51.814284" lon="4.670346">
        <ele>4.552984</ele>
        <time>2026-09-26T23:51:03.317Z</time>
      </trkpt>
      <trkpt lat="51.814362" lon="4.670473">
        <ele>4.552984</ele>
        <time>2026-09-26T23:51:16.777Z</time>
      </trkpt>
    </trkseg>
  </trk>
</gpx>